{
  "links" : {
    "next" : "https://api.nasa.gov/neo/rest/v1/feed?start_date=1997-01-16&end_date=1997-01-16&detailed=true&api_key=t0TVs3DtDT2H8Oy2Zy8m2eVrNsAVKAexjcZXUckd",
    "prev" : "https://api.nasa.gov/neo/rest/v1/feed?start_date=1997-01-14&end_date=1997-01-14&detailed=true&api_key=t0TVs3DtDT2H8Oy2Zy8m2eVrNsAVKAexjcZXUckd",
    "self" : "https://api.nasa.gov/neo/rest/v1/feed?start_date=1997-01-15&end_date=1997-01-15&detailed=true&api_key=t0TVs3DtDT2H8Oy2Zy8m2eVrNsAVKAexjcZXUckd"
  },
  "element_count" : 4,
  "near_earth_objects" : {
    "1997-01-15" : [ {
      "links" : {
        "self" : "https://api.nasa.gov/neo/rest/v1/neo/2399611?api_key=t0TVs3DtDT2H8Oy2Zy8m2eVrNsAVKAexjcZXUckd"
      },
      "neo_reference_id" : "2399611",
      "name" : "399611 (2004 BE11)",
      "nasa_jpl_url" : "http://ssd.jpl.nasa.gov/sbdb.cgi?sstr=2399611",
      "absolute_magnitude_h" : 19.3,
      "estimated_diameter" : {
        "kilometers" : {
          "estimated_diameter_min" : 0.3669061375,
          "estimated_diameter_max" : 0.8204270649
        },
        "meters" : {
          "estimated_diameter_min" : 366.9061375314,
          "estimated_diameter_max" : 820.4270648822
        },
        "miles" : {
          "estimated_diameter_min" : 0.2279848336,
          "estimated_diameter_max" : 0.5097895857
        },
        "feet" : {
          "estimated_diameter_min" : 1203.7603322587,
          "estimated_diameter_max" : 2691.6899315481
        }
      },
      "is_potentially_hazardous_asteroid" : false,
      "close_approach_data" : [ {
        "close_approach_date" : "1997-01-15",
        "epoch_date_close_approach" : 853315200000,
        "relative_velocity" : {
          "kilometers_per_second" : "7.8605108762",
          "kilometers_per_hour" : "28297.8391542665",
          "miles_per_hour" : "17583.1767789386"
        },
        "miss_distance" : {
          "astronomical" : "0.3620010491",
          "lunar" : "140.8184204102",
          "kilometers" : "54154588",
          "miles" : "33650100"
        },
        "orbiting_body" : "Earth"
      } ],
      "orbital_data" : {
        "orbit_id" : "51",
        "orbit_determination_date" : "2017-04-06 09:21:51",
        "orbit_uncertainty" : "0",
        "minimum_orbit_intersection" : ".0862996",
        "jupiter_tisserand_invariant" : "5.090",
        "epoch_osculation" : "2458000.5",
        "eccentricity" : ".1657203252918645",
        "semi_major_axis" : "1.251825566221583",
        "inclination" : "15.2474982808684",
        "ascending_node_longitude" : "138.2910362829993",
        "orbital_period" : "511.5807005798142",
        "perihelion_distance" : "1.04437262617867",
        "perihelion_argument" : "37.93216444279363",
        "aphelion_distance" : "1.459278506264496",
        "perihelion_time" : "2458218.822363918928",
        "mean_anomaly" : "206.3662704208051",
        "mean_motion" : ".7037012920776409",
        "equinox" : "J2000"
      }
    }, {
      "links" : {
        "self" : "https://api.nasa.gov/neo/rest/v1/neo/3479127?api_key=t0TVs3DtDT2H8Oy2Zy8m2eVrNsAVKAexjcZXUckd"
      },
      "neo_reference_id" : "3479127",
      "name" : "(2009 WO106)",
      "nasa_jpl_url" : "http://ssd.jpl.nasa.gov/sbdb.cgi?sstr=3479127",
      "absolute_magnitude_h" : 19.1,
      "estimated_diameter" : {
        "kilometers" : {
          "estimated_diameter_min" : 0.4023045798,
          "estimated_diameter_max" : 0.8995803882
        },
        "meters" : {
          "estimated_diameter_min" : 402.3045798343,
          "estimated_diameter_max" : 899.5803881691
        },
        "miles" : {
          "estimated_diameter_min" : 0.2499803991,
          "estimated_diameter_max" : 0.5589731654
        },
        "feet" : {
          "estimated_diameter_min" : 1319.8969577037,
          "estimated_diameter_max" : 2951.3793207207
        }
      },
      "is_potentially_hazardous_asteroid" : true,
      "close_approach_data" : [ {
        "close_approach_date" : "1997-01-15",
        "epoch_date_close_approach" : 853315200000,
        "relative_velocity" : {
          "kilometers_per_second" : "15.0382869219",
          "kilometers_per_hour" : "54137.832918709",
          "miles_per_hour" : "33639.1440155167"
        },
        "miss_distance" : {
          "astronomical" : "0.100401637",
          "lunar" : "39.0562362671",
          "kilometers" : "15019872",
          "miles" : "9332916"
        },
        "orbiting_body" : "Earth"
      } ],
      "orbital_data" : {
        "orbit_id" : "21",
        "orbit_determination_date" : "2017-06-05 06:16:50",
        "orbit_uncertainty" : "1",
        "minimum_orbit_intersection" : ".0491135",
        "jupiter_tisserand_invariant" : "4.692",
        "epoch_osculation" : "2458000.5",
        "eccentricity" : ".3854974330766134",
        "semi_major_axis" : "1.374216528118172",
        "inclination" : "17.3456258143968",
        "ascending_node_longitude" : "281.7348155033637",
        "orbital_period" : "588.4115355763129",
        "perihelion_distance" : ".844459584037161",
        "perihelion_argument" : "134.6121041147305",
        "aphelion_distance" : "1.903973472199183",
        "perihelion_time" : "2458074.224192911749",
        "mean_anomaly" : "314.8943080760055",
        "mean_motion" : ".6118166933070103",
        "equinox" : "J2000"
      }
    }, {
      "links" : {
        "self" : "https://api.nasa.gov/neo/rest/v1/neo/3722211?api_key=t0TVs3DtDT2H8Oy2Zy8m2eVrNsAVKAexjcZXUckd"
      },
      "neo_reference_id" : "3722211",
      "name" : "(2015 MN66)",
      "nasa_jpl_url" : "http://ssd.jpl.nasa.gov/sbdb.cgi?sstr=3722211",
      "absolute_magnitude_h" : 20.1,
      "estimated_diameter" : {
        "kilometers" : {
          "estimated_diameter_min" : 0.2538370294,
          "estimated_diameter_max" : 0.5675968529
        },
        "meters" : {
          "estimated_diameter_min" : 253.8370293645,
          "estimated_diameter_max" : 567.5968528656
        },
        "miles" : {
          "estimated_diameter_min" : 0.1577269688,
          "estimated_diameter_max" : 0.3526882241
        },
        "feet" : {
          "estimated_diameter_min" : 832.7986794202,
          "estimated_diameter_max" : 1862.1944587557
        }
      },
      "is_potentially_hazardous_asteroid" : false,
      "close_approach_data" : [ {
        "close_approach_date" : "1997-01-15",
        "epoch_date_close_approach" : 853315200000,
        "relative_velocity" : {
          "kilometers_per_second" : "18.1929161363",
          "kilometers_per_hour" : "65494.4980907642",
          "miles_per_hour" : "40695.7341053418"
        },
        "miss_distance" : {
          "astronomical" : "0.2739329345",
          "lunar" : "106.5599136353",
          "kilometers" : "40979784",
          "miles" : "25463658"
        },
        "orbiting_body" : "Earth"
      } ],
      "orbital_data" : {
        "orbit_id" : "19",
        "orbit_determination_date" : "2017-04-06 08:32:58",
        "orbit_uncertainty" : "4",
        "minimum_orbit_intersection" : ".239042",
        "jupiter_tisserand_invariant" : "5.089",
        "epoch_osculation" : "2458000.5",
        "eccentricity" : ".4526850699604156",
        "semi_major_axis" : "1.219618550829104",
        "inclination" : "17.7518330210599",
        "ascending_node_longitude" : "56.90428304417183",
        "orbital_period" : "491.9652859260198",
        "perihelion_distance" : ".6675154418220104",
        "perihelion_argument" : "333.6170993137441",
        "aphelion_distance" : "1.771721659836198",
        "perihelion_time" : "2457797.772025279115",
        "mean_anomaly" : "148.3480094782406",
        "mean_motion" : ".7317589478338431",
        "equinox" : "J2000"
      }
    }, {
      "links" : {
        "self" : "https://api.nasa.gov/neo/rest/v1/neo/2494975?api_key=t0TVs3DtDT2H8Oy2Zy8m2eVrNsAVKAexjcZXUckd"
      },
      "neo_reference_id" : "2494975",
      "name" : "494975 (2009 WO106)",
      "nasa_jpl_url" : "http://ssd.jpl.nasa.gov/sbdb.cgi?sstr=2494975",
      "absolute_magnitude_h" : 19.1,
      "estimated_diameter" : {
        "kilometers" : {
          "estimated_diameter_min" : 0.4023045798,
          "estimated_diameter_max" : 0.8995803882
        },
        "meters" : {
          "estimated_diameter_min" : 402.3045798343,
          "estimated_diameter_max" : 899.5803881691
        },
        "miles" : {
          "estimated_diameter_min" : 0.2499803991,
          "estimated_diameter_max" : 0.5589731654
        },
        "feet" : {
          "estimated_diameter_min" : 1319.8969577037,
          "estimated_diameter_max" : 2951.3793207207
        }
      },
      "is_potentially_hazardous_asteroid" : true,
      "close_approach_data" : [ {
        "close_approach_date" : "1997-01-15",
        "epoch_date_close_approach" : 853315200000,
        "relative_velocity" : {
          "kilometers_per_second" : "15.0382240417",
          "kilometers_per_hour" : "54137.6065502773",
          "miles_per_hour" : "33639.0033589765"
        },
        "miss_distance" : {
          "astronomical" : "0.100399224",
          "lunar" : "39.0552978516",
          "kilometers" : "15019511",
          "miles" : "9332691"
        },
        "orbiting_body" : "Earth"
      } ],
      "orbital_data" : {
        "orbit_id" : "30",
        "orbit_determination_date" : "2017-09-12 06:21:26",
        "orbit_uncertainty" : "1",
        "minimum_orbit_intersection" : ".0491136",
        "jupiter_tisserand_invariant" : "4.692",
        "epoch_osculation" : "2458000.5",
        "eccentricity" : ".3854973826641557",
        "semi_major_axis" : "1.374216559377913",
        "inclination" : "17.34563185360939",
        "ascending_node_longitude" : "281.7347966420601",
        "orbital_period" : "588.4115556534896",
        "perihelion_distance" : ".844459672523986",
        "perihelion_argument" : "134.6121438536245",
        "aphelion_distance" : "1.903973446231839",
        "perihelion_time" : "2458074.224296835304",
        "mean_anomaly" : "314.8942460328925",
        "mean_motion" : ".6118166724312274",
        "equinox" : "J2000"
      }
    } ]
  }
}